[{"OBJECT_NAME":"STARLINK-1281","OBJECT_ID":"2020-019L","EPOCH":"2026-03-10T00:00:02.999808","MEAN_MOTION":15.29341528,"ECCENTRICITY":0.00017582,"INCLINATION":53.1566,"RA_OF_ASC_NODE":163.8375,"ARG_OF_PERICENTER":99.1005,"MEAN_ANOMALY":277.6835,"EPHEMERIS_TYPE":0,"CLASSIFICATION_TYPE":"U","NORAD_CAT_ID":45370,"ELEMENT_SET_NO":999,"REV_AT_EPOCH":579,"BSTAR":0.00064184087,"MEAN_MOTION_DOT":0.00018202,"MEAN_MOTION_DDOT":0},{"OBJECT_NAME":"OBJECT AL","OBJECT_ID":"2023-085AL","EPOCH":"2026-03-09T22:26:04.970400","MEAN_MOTION":15.31857284,"ECCENTRICITY":0.000802,"INCLINATION":97.4839,"RA_OF_ASC_NODE":180.0127,"ARG_OF_PERICENTER":78.7242,"MEAN_ANOMALY":281.49,"EPHEMERIS_TYPE":0,"CLASSIFICATION_TYPE":"U","NORAD_CAT_ID":57038,"ELEMENT_SET_NO":999,"REV_AT_EPOCH":15154,"BSTAR":0.0006591637,"MEAN_MOTION_DOT":0.00020246,"MEAN_MOTION_DDOT":0}]
